NORAD_CAT_ID,OBJECT_NAME,OBJECT_TYPE,EPOCH,MEAN_MOTION,ECCENTRICITY,INCLINATION,RA_OF_ASC_NODE,ARG_OF_PERICENTER,MEAN_ANOMALY,BSTAR,MEAN_MOTION_DOT,MEAN_MOTION_DDOT,TLE_LINE0,TLE_LINE1,TLE_LINE2,SEMIMAJOR_AXIS,PERIOD,APOGEE,PERIGEE,DECAYED
53006.0,STARLINK-4290,PAYLOAD,2024-05-05 12:51:24,15.0884972,0.0001288,53.2189,236.0294,98.5291,261.5847,6.1172e-05,6.86e-06,0.0,0 STARLINK-4290,1 53006U 22076W   24126.53570224  .00000686  00000-0  61172-4 0  9995,2 53006  53.2189 236.0294 0001288  98.5291 261.5847 15.08849720101697,6917.851,95.437,540.607,538.825,0.0
53006.0,STARLINK-4290,PAYLOAD,2024-05-06 14:17:34,15.08853568,0.0001517,53.2185,231.2711,87.2862,272.8303,0.00029447,4.403e-05,0.0,0 STARLINK-4290,1 53006U 22076W   24127.59553943  .00004403  00000-0  29447-3 0  9990,2 53006  53.2185 231.2711 0001517  87.2862 272.8303 15.08853568101853,6917.839,95.437,540.753,538.654,0.0
53006.0,STARLINK-4290,PAYLOAD,2024-05-07 12:32:58,15.08844739,0.0001192,53.2186,227.11,85.0091,275.1037,1.5554e-05,-4e-07,0.0,0 STARLINK-4290,1 53006U 22076W   24128.52289886 -.00000040  00000-0  15554-4 0  9995,2 53006  53.2186 227.1100 0001192  85.0091 275.1037 15.08844739101994,6917.866,95.437,540.556,538.906,0.0
53006.0,STARLINK-4290,PAYLOAD,2024-05-07 14:08:21,15.08845911,0.0001273,53.2168,226.812,80.9397,279.1739,3.762e-05,3.11e-06,0.0,0 STARLINK-4290,1 53006U 22076W   24128.58913830  .00000311  00000-0  37620-4 0  9992,2 53006  53.2168 226.8120 0001273  80.9397 279.1739 15.08845911101531,6917.862,95.437,540.608,538.847,0.0
53006.0,STARLINK-4290,PAYLOAD,2024-05-08 12:23:45,15.08844468,0.0001191,53.2146,222.645,79.7673,280.3453,1.6413e-05,-2.7e-07,0.0,0 STARLINK-4290,1 53006U 22076W   24129.51649884 -.00000027  00000-0  16413-4 0  9993,2 53006  53.2146 222.6450 0001191  79.7673 280.3453 15.08844468101677,6917.867,95.437,540.556,538.908,0.0
53006.0,STARLINK-4290,PAYLOAD,2024-05-09 05:53:00,15.08842849,0.0001169,53.2143,219.3758,87.6988,272.4138,0.00012469,1.697e-05,0.0,0 STARLINK-4290,1 53006U 22076W   24130.24514213  .00001697  00000-0  12469-3 0  9991,2 53006  53.2143 219.3758 0001169  87.6988 272.4138 15.08842849102258,6917.872,95.437,540.545,538.928,0.0
53006.0,STARLINK-4290,PAYLOAD,2024-05-09 12:14:32,15.08844253,0.0001196,53.2162,218.1878,70.1032,290.0089,0.00012594,1.717e-05,0.0,0 STARLINK-4290,1 53006U 22076W   24130.51010103  .00001717  00000-0  12594-3 0  9992,2 53006  53.2162 218.1878 0001196  70.1032 290.0089 15.08844253101820,6917.867,95.437,540.56,538.905,0.0
53006.0,STARLINK-4290,PAYLOAD,2024-05-10 12:05:19,15.08850713,0.000139,53.2175,213.727,87.0275,273.0876,0.00017386,2.481e-05,0.0,0 STARLINK-4290,1 53006U 22076W   24131.50370003  .00002481  00000-0  17386-3 0  9993,2 53006  53.2175 213.7270 0001390  87.0275 273.0876 15.08850713102445,6917.848,95.437,540.674,538.751,0.0
53006.0,STARLINK-4290,PAYLOAD,2024-05-10 15:16:05,15.08853278,0.0001352,53.2169,213.1314,86.581,273.5337,0.00022487,3.294e-05,0.0,0 STARLINK-4290,1 53006U 22076W   24131.63617831  .00003294  00000-0  22487-3 0  9991,2 53006  53.2169 213.1314 0001352  86.5810 273.5337 15.08853278101993,6917.84,95.437,540.64,538.77,0.0
53006.0,STARLINK-4290,PAYLOAD,2024-05-11 11:56:03,15.08932531,0.0001387,53.2173,209.2666,84.827,275.2881,0.0019474,0.0003092,0.0,0 STARLINK-4290,1 53006U 22076W   24132.49726514  .00030920  00000-0  19474-2 0  9992,2 53006  53.2173 209.2666 0001387  84.8270 275.2881 15.08932531102593,6917.598,95.432,540.422,538.503,0.0
53006.0,STARLINK-4290,PAYLOAD,2024-05-11 15:06:50,15.08906228,0.0001612,53.2167,208.6712,79.5735,280.5438,0.0011977,0.00018859,0.0,0 STARLINK-4290,1 53006U 22076W   24132.62974791  .00018859  00000-0  11977-2 0  9996,2 53006  53.2167 208.6712 0001612  79.5735 280.5438 15.08906228102613,6917.678,95.433,540.658,538.428,0.0
53006.0,STARLINK-4290,PAYLOAD,2024-05-12 05:25:23,15.08754006,0.0002248,53.2176,205.9942,72.3866,287.7372,-0.0022212,-0.00035384,0.0,0 STARLINK-4290,1 53006U 22076W   24133.22596516 -.00035384  00000-0 -22212-2 0  9996,2 53006  53.2176 205.9942 0002248  72.3866 287.7372 15.08754006102701,6918.143,95.443,541.563,538.453,0.0
53006.0,STARLINK-4290,PAYLOAD,2024-05-12 11:46:55,15.08821531,0.0001005,53.2161,204.805,83.533,276.5777,0.00044336,6.772e-05,0.0,0 STARLINK-4290,1 53006U 22076W   24133.49092038  .00006772  00000-0  44336-3 0  9994,2 53006  53.2161 204.8050 0001005  83.5330 276.5777 15.08821531102740,6917.937,95.439,540.497,539.107,0.0
53006.0,STARLINK-4290,PAYLOAD,2024-05-12 21:19:14,15.08825372,0.0001381,53.2166,203.0212,79.4303,280.6845,0.00084436,0.0001317,0.0,0 STARLINK-4290,1 53006U 22076W   24133.88836116  .00013170  00000-0  84436-3 0  9995,2 53006  53.2166 203.0212 0001381  79.4303 280.6845 15.08825372102331,6917.925,95.438,540.745,538.835,0.0
53006.0,STARLINK-4290,PAYLOAD,2024-05-13 03:40:46,15.08838529,4.87e-05,53.2166,201.8321,74.4512,285.6533,0.001267,0.00019933,0.0,0 STARLINK-4290,1 53006U 22076W   24134.15331800  .00019933  00000-0  12670-2 0  9999,2 53006  53.2166 201.8321 0000487  74.4512 285.6533 15.08838529102844,6917.885,95.438,540.087,539.413,0.0
53006.0,STARLINK-4290,PAYLOAD,2024-05-13 11:37:41,15.08880253,0.0001511,53.2171,200.3481,85.2616,274.8549,0.0020986,0.00033306,0.0,0 STARLINK-4290,1 53006U 22076W   24134.48450796  .00033306  00000-0  20986-2 0  9990,2 53006  53.2171 200.3481 0001511  85.2616 274.8549 15.08880253102427,6917.757,95.435,540.668,538.577,0.0
53006.0,STARLINK-4290,PAYLOAD,2024-05-13 21:09:59,15.08868333,0.0001593,53.2161,198.5616,79.3125,280.8047,0.00041387,6.31e-05,0.0,0 STARLINK-4290,1 53006U 22076W   24134.88194048  .00006310  00000-0  41387-3 0  9993,2 53006  53.2161 198.5616 0001593  79.3125 280.8047 15.08868333102484,6917.794,95.436,540.761,538.557,0.0
53006.0,STARLINK-4290,PAYLOAD,2024-05-14 13:03:50,15.08851564,0.0001424,53.2166,195.5871,86.4277,273.6878,-0.00018971,-3.307e-05,0.0,0 STARLINK-4290,1 53006U 22076W   24135.54433655 -.00003307  00000-0 -18971-3 0  9995,2 53006  53.2166 195.5871 0001424  86.4277 273.6878 15.08851564103053,6917.845,95.437,540.695,538.725,0.0
53006.0,STARLINK-4290,PAYLOAD,2024-05-14 21:00:46,15.08846412,0.0001407,53.216,194.0994,77.04,283.0749,-0.00030177,-5.088e-05,0.0,0 STARLINK-4290,1 53006U 22076W   24135.87553605 -.00005088  00000-0 -30177-3 0  9999,2 53006  53.2160 194.0994 0001407  77.0400 283.0749 15.08846412102633,6917.861,95.437,540.699,538.752,0.0
53006.0,STARLINK-4290,PAYLOAD,2024-05-15 11:19:14,15.08850357,0.0001563,53.2169,191.4249,76.2672,283.8494,-0.00031717,-5.334e-05,0.0,0 STARLINK-4290,1 53006U 22076W   24136.47169657 -.00005334  00000-0 -31717-3 0  9991,2 53006  53.2169 191.4249 0001563  76.2672 283.8494 15.08850357102729,6917.849,95.437,540.795,538.632,0.0
53006.0,STARLINK-4290,PAYLOAD,2024-05-16 09:34:39,15.08836247,0.0001331,53.2165,187.2604,92.7138,267.4007,0.0001405,1.949e-05,0.0,0 STARLINK-4290,1 53006U 22076W   24137.39906654  .00001949  00000-0  14050-3 0  9996,2 53006  53.2165 187.2604 0001331  92.7138 267.4007 15.08836247103334,6917.892,95.438,540.678,538.836,0.0
53006.0,STARLINK-4290,PAYLOAD,2024-05-16 20:42:20,15.08846122,0.0001389,53.2174,185.1802,89.8172,270.2979,0.00023597,3.47e-05,0.0,0 STARLINK-4290,1 53006U 22076W   24137.86274289  .00003470  00000-0  23597-3 0  9997,2 53006  53.2174 185.1802 0001389  89.8172 270.2979 15.08846122102937,6917.862,95.437,540.688,538.766,0.0
53006.0,STARLINK-4290,PAYLOAD,2024-05-17 09:25:26,15.08840467,0.0001393,53.2175,182.799,101.7712,258.3436,0.00030143,4.513e-05,0.0,0 STARLINK-4290,1 53006U 22076W   24138.39266548  .00004513  00000-0  30143-3 0  9999,2 53006  53.2175 182.7990 0001393 101.7712 258.3436 15.08840467103480,6917.879,95.438,540.708,538.78,0.0
53006.0,STARLINK-4290,PAYLOAD,2024-05-17 20:33:08,15.08838202,0.000136,53.2161,180.7172,103.848,256.2664,0.00011455,1.536e-05,0.0,0 STARLINK-4290,1 53006U 22076W   24138.85634801  .00001536  00000-0  11455-3 0  9998,2 53006  53.2161 180.7172 0001360 103.8480 256.2664 15.08838202103084,6917.886,95.438,540.692,538.81,0.0
53006.0,STARLINK-4290,PAYLOAD,2024-05-18 12:26:59,15.08844576,0.0001516,53.2172,177.7442,91.1594,268.9572,0.00011154,1.488e-05,0.0,0 STARLINK-4290,1 53006U 22076W   24139.51874610  .00001488  00000-0  11154-3 0  9998,2 53006  53.2172 177.7442 0001516  91.1594 268.9572 15.08844576103180,6917.866,95.437,540.78,538.683,0.0
53006.0,STARLINK-4290,PAYLOAD,2024-05-19 09:07:01,15.08830295,0.0001467,53.2167,173.8791,88.5866,271.5294,-6.2258e-05,-1.278e-05,0.0,0 STARLINK-4290,1 53006U 22076W   24140.37987893 -.00001278  00000-0 -62258-4 0  9993,2 53006  53.2167 173.8791 0001467  88.5866 271.5294 15.08830295103314,6917.91,95.438,540.79,538.76,0.0
53006.0,STARLINK-4290,PAYLOAD,2024-05-20 08:57:48,15.08842459,0.0001446,53.2159,169.4151,85.6253,274.4904,0.00021928,3.204e-05,0.0,0 STARLINK-4290,1 53006U 22076W   24141.37347837  .00003204  00000-0  21928-3 0  9999,2 53006  53.2159 169.4151 0001446  85.6253 274.4904 15.08842459103934,6917.873,95.437,540.738,538.738,0.0
53006.0,STARLINK-4290,PAYLOAD,2024-05-21 02:27:03,15.08839641,0.0001533,53.2165,166.1511,100.3228,259.7937,0.00018696,2.689e-05,0.0,0 STARLINK-4290,1 53006U 22076W   24142.10212117  .00002689  00000-0  18696-3 0  9997,2 53006  53.2165 166.1511 0001533 100.3228 259.7937 15.08839641104043,6917.881,95.438,540.807,538.686,0.0
53006.0,STARLINK-4290,PAYLOAD,2024-05-21 07:13:12,15.08838455,0.00015,53.2165,165.2582,97.1531,262.9632,0.00012854,1.758e-05,0.0,0 STARLINK-4290,1 53006U 22076W   24142.30084177  .00001758  00000-0  12854-3 0  9998,2 53006  53.2165 165.2582 0001500  97.1531 262.9632 15.08838455103606,6917.885,95.438,540.788,538.712,0.0
53006.0,STARLINK-4290,PAYLOAD,2024-05-22 10:14:45,15.08848972,0.0001468,53.2164,160.2009,91.9564,268.1596,0.00013804,1.91e-05,0.0,0 STARLINK-4290,1 53006U 22076W   24143.42691513  .00001910  00000-0  13804-3 0  9996,2 53006  53.2164 160.2009 0001468  91.9564 268.1596 15.08848972104248,6917.853,95.437,540.734,538.702,0.0
